start=new Date('2022-09-08T00:00:00.000Z').valueOf();
sats=[{"NORAD_CAT_ID":"48446","PERIAPSIS":"546.137","MEAN_MOTION_DDOT":"0.0000000000000","PERIOD":"95.593","SITE":"AFETR","APOAPSIS":"548.344","COUNTRY_CODE":"US","ELEMENT_SET_NO":"999","LAUNCH_DATE":"2021-05-09","TLE_LINE2":"2 48446  53.0546 165.3717 0001594  64.0445 296.0708 15.06391184 73788","DECAY_DATE":null,"RCS_SIZE":"LARGE","CLASSIFICATION_TYPE":"U","MEAN_MOTION_DOT":"-0.00001288","GP_ID":"211963635","OBJECT_NAME":"STARLINK-2247","SEMIMAJOR_AXIS":"6925.376","RA_OF_ASC_NODE":"165.3717","TIME_SYSTEM":"UTC","REV_AT_EPOCH":"7378","ECCENTRICITY":"0.00015940","MEAN_MOTION":"15.06391184","ARG_OF_PERICENTER":"64.0445","EPHEMERIS_TYPE":"0","FILE":"3562217","TLE_LINE1":"1 48446U 21040U   22250.22557004 -.00001288  00000-0 -67583-4 0  9993","CENTER_NAME":"EARTH","EPOCH":"2022-09-07T05:24:49.251456","MEAN_ELEMENT_THEORY":"SGP4","MEAN_ANOMALY":"296.0708","REF_FRAME":"TEME","BSTAR":"-0.00006758300000","OBJECT_ID":"2021-040U","INCLINATION":"53.0546","OBJECT_TYPE":"PAYLOAD"},{"PERIOD":"95.593","SITE":"AFETR","ELEMENT_SET_NO":"999","COUNTRY_CODE":"US","APOAPSIS":"548.363","NORAD_CAT_ID":"48447","PERIAPSIS":"546.158","MEAN_MOTION_DDOT":"0.0000000000000","CLASSIFICATION_TYPE":"U","MEAN_MOTION_DOT":"-0.00003636","GP_ID":"211963885","LAUNCH_DATE":"2021-05-09","RCS_SIZE":"LARGE","TLE_LINE2":"2 48447  53.0543 165.6807 0001592  65.5835 294.5320 15.06384579 73778","DECAY_DATE":null,"REV_AT_EPOCH":"7377","TIME_SYSTEM":"UTC","ECCENTRICITY":"0.00015920","MEAN_MOTION":"15.06384579","OBJECT_NAME":"STARLINK-2269","RA_OF_ASC_NODE":"165.6807","SEMIMAJOR_AXIS":"6925.396","EPHEMERIS_TYPE":"0","ARG_OF_PERICENTER":"65.5835","FILE":"3562217","TLE_LINE1":"1 48447U 21040V   22250.15552790 -.00003636  00000-0 -22543-3 0  9998","MEAN_ANOMALY":"294.5320","REF_FRAME":"TEME","CENTER_NAME":"EARTH","EPOCH":"2022-09-07T03:43:57.610560","MEAN_ELEMENT_THEORY":"SGP4","OBJECT_ID":"2021-040V","INCLINATION":"53.0543","BSTAR":"-0.00022543000000","OBJECT_TYPE":"PAYLOAD"},{"FILE":"3562217","TLE_LINE1":"1 48448U 21040W   22250.18040216 -.00003626  00000-0 -22476-3 0  9991","MEAN_ANOMALY":"289.7713","REF_FRAME":"TEME","EPOCH":"2022-09-07T04:19:46.746624","CENTER_NAME":"EARTH","MEAN_ELEMENT_THEORY":"SGP4","INCLINATION":"53.0537","OBJECT_ID":"2021-040W","BSTAR":"-0.00022476000000","OBJECT_TYPE":"PAYLOAD","COUNTRY_CODE":"US","APOAPSIS":"548.313","ELEMENT_SET_NO":"999","PERIOD":"95.593","SITE":"AFETR","MEAN_MOTION_DDOT":"0.0000000000000","PERIAPSIS":"546.222","NORAD_CAT_ID":"48448","CLASSIFICATION_TYPE":"U","GP_ID":"211965137","MEAN_MOTION_DOT":"-0.00003626","LAUNCH_DATE":"2021-05-09","RCS_SIZE":"LARGE","TLE_LINE2":"2 48448  53.0537 165.5689 0001510  70.3439 289.7713 15.06382404 73770","DECAY_DATE":null,"TIME_SYSTEM":"UTC","REV_AT_EPOCH":"7377","MEAN_MOTION":"15.06382404","ECCENTRICITY":"0.00015100","SEMIMAJOR_AXIS":"6925.402","RA_OF_ASC_NODE":"165.5689","OBJECT_NAME":"STARLINK-2632","EPHEMERIS_TYPE":"0","ARG_OF_PERICENTER":"70.3439"},{"COUNTRY_CODE":"US","ELEMENT_SET_NO":"999","APOAPSIS":"548.368","SITE":"AFETR","PERIOD":"95.593","MEAN_MOTION_DDOT":"0.0000000000000","PERIAPSIS":"546.149","NORAD_CAT_ID":"48449","MEAN_MOTION_DOT":"-0.00002819","GP_ID":"211965388","CLASSIFICATION_TYPE":"U","TLE_LINE2":"2 48449  53.0546 165.6945 0001602  62.6490 297.4661 15.06385324 73772","DECAY_DATE":null,"RCS_SIZE":"LARGE","LAUNCH_DATE":"2021-05-09","ECCENTRICITY":"0.00016020","MEAN_MOTION":"15.06385324","REV_AT_EPOCH":"7377","TIME_SYSTEM":"UTC","RA_OF_ASC_NODE":"165.6945","SEMIMAJOR_AXIS":"6925.394","OBJECT_NAME":"STARLINK-2655","EPHEMERIS_TYPE":"0","ARG_OF_PERICENTER":"62.6490","TLE_LINE1":"1 48449U 21040X   22250.15186191 -.00002819  00000-0 -17051-3 0  9998","FILE":"3562217","REF_FRAME":"TEME","MEAN_ANOMALY":"297.4661","MEAN_ELEMENT_THEORY":"SGP4","CENTER_NAME":"EARTH","EPOCH":"2022-09-07T03:38:40.869024","INCLINATION":"53.0546","OBJECT_ID":"2021-040X","BSTAR":"-0.00017051000000","OBJECT_TYPE":"PAYLOAD"},{"EPHEMERIS_TYPE":"0","ARG_OF_PERICENTER":"66.6241","MEAN_MOTION":"15.06375108","ECCENTRICITY":"0.00018190","REV_AT_EPOCH":"7377","TIME_SYSTEM":"UTC","RA_OF_ASC_NODE":"165.7070","SEMIMAJOR_AXIS":"6925.425","OBJECT_NAME":"STARLINK-2660","GP_ID":"211964136","MEAN_MOTION_DOT":"-0.00002245","CLASSIFICATION_TYPE":"U","TLE_LINE2":"2 48450  53.0549 165.7070 0001819  66.6241 293.4939 15.06375108 73778","DECAY_DATE":null,"RCS_SIZE":"LARGE","LAUNCH_DATE":"2021-05-09","APOAPSIS":"548.550","COUNTRY_CODE":"US","ELEMENT_SET_NO":"999","SITE":"AFETR","PERIOD":"95.594","MEAN_MOTION_DDOT":"0.0000000000000","NORAD_CAT_ID":"48450","PERIAPSIS":"546.030","OBJECT_TYPE":"PAYLOAD","INCLINATION":"53.0549","OBJECT_ID":"2021-040Y","BSTAR":"-0.00013197000000","REF_FRAME":"TEME","MEAN_ANOMALY":"293.4939","MEAN_ELEMENT_THEORY":"SGP4","CENTER_NAME":"EARTH","EPOCH":"2022-09-07T03:33:22.495392","TLE_LINE1":"1 48450U 21040Y   22250.14817703 -.00002245  00000-0 -13197-3 0  9999","FILE":"3562217"},{"MEAN_ELEMENT_THEORY":"SGP4","EPOCH":"2022-09-07T03:32:01.822848","CENTER_NAME":"EARTH","REF_FRAME":"TEME","MEAN_ANOMALY":"275.3537","TLE_LINE1":"1 48451U 21040Z   22250.14724332 -.00000500  00000-0 -14675-4 0  9990","FILE":"3562217","OBJECT_TYPE":"PAYLOAD","BSTAR":"-0.00001467500000","OBJECT_ID":"2021-040Z","INCLINATION":"53.0562","TLE_LINE2":"2 48451  53.0562 165.7447 0001356  84.7607 275.3537 15.06386667 73770","DECAY_DATE":null,"RCS_SIZE":"LARGE","LAUNCH_DATE":"2021-05-09","MEAN_MOTION_DOT":"-0.00000500","GP_ID":"211964386","CLASSIFICATION_TYPE":"U","PERIAPSIS":"546.315","NORAD_CAT_ID":"48451","MEAN_MOTION_DDOT":"0.0000000000000","SITE":"AFETR","PERIOD":"95.593","COUNTRY_CODE":"US","ELEMENT_SET_NO":"999","APOAPSIS":"548.194","ARG_OF_PERICENTER":"84.7607","EPHEMERIS_TYPE":"0","OBJECT_NAME":"STARLINK-2652","RA_OF_ASC_NODE":"165.7447","SEMIMAJOR_AXIS":"6925.389","ECCENTRICITY":"0.00013560","MEAN_MOTION":"15.06386667","TIME_SYSTEM":"UTC","REV_AT_EPOCH":"7377"},{"MEAN_ELEMENT_THEORY":"SGP4","EPOCH":"2022-09-07T05:03:36.061056","CENTER_NAME":"EARTH","REF_FRAME":"TEME","MEAN_ANOMALY":"295.8615","TLE_LINE1":"1 48452U 21040AA  22250.21083404 -.00002056  00000-0 -11922-3 0  9996","FILE":"3562217","OBJECT_TYPE":"PAYLOAD","BSTAR":"-0.00011922000000","OBJECT_ID":"2021-040AA","INCLINATION":"53.0544","TLE_LINE2":"2 48452  53.0544 165.3965 0001658  64.2545 295.8615 15.06380502 73788","RCS_SIZE":"LARGE","DECAY_DATE":null,"LAUNCH_DATE":"2021-05-09","MEAN_MOTION_DOT":"-0.00002056","GP_ID":"211964637","CLASSIFICATION_TYPE":"U","PERIAPSIS":"546.125","NORAD_CAT_ID":"48452","MEAN_MOTION_DDOT":"0.0000000000000","SITE":"AFETR","PERIOD":"95.593","COUNTRY_CODE":"US","ELEMENT_SET_NO":"999","APOAPSIS":"548.422","ARG_OF_PERICENTER":"64.2545","EPHEMERIS_TYPE":"0","OBJECT_NAME":"STARLINK-2703","SEMIMAJOR_AXIS":"6925.408","RA_OF_ASC_NODE":"165.3965","ECCENTRICITY":"0.00016580","MEAN_MOTION":"15.06380502","REV_AT_EPOCH":"7378","TIME_SYSTEM":"UTC"},{"FILE":"3562217","TLE_LINE1":"1 48453U 21040AB  22250.07445061 -.00002270  00000-0 -13362-3 0  9990","CENTER_NAME":"EARTH","EPOCH":"2022-09-07T01:47:12.532704","MEAN_ELEMENT_THEORY":"SGP4","MEAN_ANOMALY":"286.8338","REF_FRAME":"TEME","BSTAR":"-0.00013362000000","OBJECT_ID":"2021-040AB","INCLINATION":"53.0569","OBJECT_TYPE":"PAYLOAD","NORAD_CAT_ID":"48453","PERIAPSIS":"546.181","MEAN_MOTION_DDOT":"0.0000000000000","SITE":"AFETR","PERIOD":"95.593","COUNTRY_CODE":"US","APOAPSIS":"548.336","ELEMENT_SET_NO":"999","LAUNCH_DATE":"2021-05-09","DECAY_DATE":null,"TLE_LINE2":"2 48453  53.0569 166.0468 0001556  73.2821 286.8338 15.06385282 73766","RCS_SIZE":"LARGE","CLASSIFICATION_TYPE":"U","MEAN_MOTION_DOT":"-0.00002270","GP_ID":"211964888","OBJECT_NAME":"STARLINK-2620","RA_OF_ASC_NODE":"166.0468","SEMIMAJOR_AXIS":"6925.394","REV_AT_EPOCH":"7376","TIME_SYSTEM":"UTC","ECCENTRICITY":"0.00015560","MEAN_MOTION":"15.06385282","ARG_OF_PERICENTER":"73.2821","EPHEMERIS_TYPE":"0"},{"REV_AT_EPOCH":"7378","TIME_SYSTEM":"UTC","ECCENTRICITY":"0.00015030","MEAN_MOTION":"15.06383115","OBJECT_NAME":"STARLINK-2654","SEMIMAJOR_AXIS":"6925.400","RA_OF_ASC_NODE":"165.4644","EPHEMERIS_TYPE":"0","ARG_OF_PERICENTER":"87.2064","PERIOD":"95.593","SITE":"AFETR","COUNTRY_CODE":"US","APOAPSIS":"548.306","ELEMENT_SET_NO":"999","NORAD_CAT_ID":"48454","PERIAPSIS":"546.224","MEAN_MOTION_DDOT":"0.0000000000000","CLASSIFICATION_TYPE":"U","MEAN_MOTION_DOT":"-0.00004112","GP_ID":"211963636","LAUNCH_DATE":"2021-05-09","RCS_SIZE":"LARGE","TLE_LINE2":"2 48454  53.0537 165.4644 0001503  87.2064 272.9097 15.06383115 73780","DECAY_DATE":null,"OBJECT_ID":"2021-040AC","INCLINATION":"53.0537","BSTAR":"-0.00025744000000","OBJECT_TYPE":"PAYLOAD","FILE":"3562217","TLE_LINE1":"1 48454U 21040AC  22250.20346430 -.00004112  00000-0 -25744-3 0  9990","MEAN_ANOMALY":"272.9097","REF_FRAME":"TEME","EPOCH":"2022-09-07T04:52:59.315520","CENTER_NAME":"EARTH","MEAN_ELEMENT_THEORY":"SGP4"},{"SEMIMAJOR_AXIS":"6925.382","RA_OF_ASC_NODE":"162.7918","OBJECT_NAME":"STARLINK-2497","MEAN_MOTION":"15.06389089","ECCENTRICITY":"0.00016470","REV_AT_EPOCH":"7386","TIME_SYSTEM":"UTC","ARG_OF_PERICENTER":"69.8179","EPHEMERIS_TYPE":"0","MEAN_MOTION_DDOT":"0.0000000000000","NORAD_CAT_ID":"48455","PERIAPSIS":"546.106","COUNTRY_CODE":"US","APOAPSIS":"548.388","ELEMENT_SET_NO":"999","SITE":"AFETR","PERIOD":"95.593","TLE_LINE2":"2 48455  53.0554 162.7918 0001647  69.8179 290.2987 15.06389089 73862","DECAY_DATE":null,"RCS_SIZE":"LARGE","LAUNCH_DATE":"2021-05-09","GP_ID":"212009146","MEAN_MOTION_DOT":"0.00000507","CLASSIFICATION_TYPE":"U","BSTAR":"0.00005294600000","INCLINATION":"53.0554","OBJECT_ID":"2021-040AD","OBJECT_TYPE":"PAYLOAD","TLE_LINE1":"1 48455U 21040AD  22250.79689495  .00000507  00000-0  52946-4 0  9993","FILE":"3563022","MEAN_ELEMENT_THEORY":"SGP4","CENTER_NAME":"EARTH","EPOCH":"2022-09-07T19:07:31.723680","REF_FRAME":"TEME","MEAN_ANOMALY":"290.2987"}];
